STARLINK-37426          
1 68813U 26089M   26117.53846321 -.00232037  22965-4 -37284-3 0  9994
2 68813  97.2859 322.6893 0001832 185.9653 174.1606 16.03488443   716
