{
  "norad_id": 68813,
  "name": "STARLINK-37426",
  "history": [
    {
      "epoch": "2026-04-27T12:55:23.221344Z",
      "apogee_km": 265.98360707512893,
      "perigee_km": 263.5496471861479,
      "latitude_deg": 2.2361273239418726e-05,
      "longitude_deg": -86.68429406035537,
      "height_km": 269.18372580125475,
      "semi_major_axis_km": 6642.903627130639,
      "eccentricity": 0.0001832,
      "inclination_deg": 97.2859,
      "raan_deg": 322.6893,
      "arg_perigee_deg": 185.9653,
      "mean_anomaly_deg": 174.1606,
      "mean_motion_rev_day": 16.03488443
    }
  ]
}